STARLINK-32614          
1 62428U 24249V   25282.78843017  .00039002  00000+0  14191-2 0  9991
2 62428  43.0043  94.2052 0001803 260.5281  99.5367 15.27586729 44645
STARLINK-32418          
1 62429U 24249W   25282.83922432  .00028408  00000+0  10383-2 0  9994
2 62429  43.0048  85.9385 0001623 282.7269  77.3401 15.27567860 44748
STARLINK-32702          
1 62432U 24251A   25283.23672623  .00014937  00000+0  51530-3 0  9992
2 62432  53.1582 311.2889 0001534 106.5605 253.5565 15.30207846 44950
STARLINK-32712          
1 62433U 24251B   25283.31534566  .00025715  00000+0  87684-3 0  9990
2 62433  53.1568 313.9040 0001570 116.1325 243.9837 15.30217659 44924
STARLINK-32674          
1 62434U 24251C   25282.82015897  .00027723  00000+0  94456-3 0  9993
2 62434  53.1601 315.7944 0001550  84.2400 275.8778 15.30203385 44854
STARLINK-32711          
1 62435U 24251D   25283.31217812  .00031869  00000+0  10827-2 0  9995
2 62435  53.1572 313.8865 0002158 137.1934 222.9235 15.30224574 44920
STARLINK-32697          
1 62436U 24251E   25283.23420331  .00022812  00000+0  77991-3 0  9993
2 62436  53.1592 314.1119 0001281  71.1975 288.9165 15.30202145 44910
STARLINK-32693          
1 62437U 24251F   25283.32313049  .00027204  00000+0  92727-3 0  9995
2 62437  53.1595 311.0413 0000986  54.8681 305.2412 15.30199485 44965
STARLINK-32721          
1 62438U 24251G   25283.09618977  .00035998  00000+0  12210-2 0  9995
2 62438  53.1598 314.6679 0001461  75.3362 284.7801 15.30216013 44831
STARLINK-32709          
1 62439U 24251H   25283.26691593  .00016862  00000+0  58058-3 0  9990
2 62439  53.1595 314.3140 0001524  93.0731 267.0445 15.30175381 44915
STARLINK-32689          
1 62440U 24251J   25283.07720526  .00015749  00000+0  54275-3 0  9990
2 62440  53.1601 314.5485 0001238  84.3853 275.7289 15.30198700 44898
STARLINK-32724          
1 62441U 24251K   25283.09830168  .00039100  00000+0  13251-2 0  9992
2 62441  53.1593 314.6839 0001355  89.4696 270.6460 15.30205436 44737
STARLINK-32291          
1 62442U 24251L   25283.23737027  .00030968  00000+0  10528-2 0  9996
2 62442  53.1583 314.1270 0001365  84.4765 275.6392 15.30216620 44606
STARLINK-32736          
1 62443U 24251M   25283.31007610  .00015484  00000+0  53429-3 0  9998
2 62443  53.1574 313.8711 0001157  84.4441 275.6692 15.30171065 44766
STARLINK-32737          
1 62444U 24251N   25283.22309935  .00052621  00000+0  17719-2 0  9999
2 62444  53.1595 311.9097 0001411  87.5357 272.5805 15.30278842 44942
STARLINK-32683          
1 62445U 24251P   25283.32800886  .00030328  00000+0  10312-2 0  9994
2 62445  53.1592 313.9799 0001366 103.9901 256.1252 15.30222870 44920
