[{"OBJECT_NAME":"STARLINK-32614","OBJECT_ID":"2024-249V","EPOCH":"2025-10-09T18:55:20.366688","MEAN_MOTION":15.27586729,"ECCENTRICITY":0.00018039,"INCLINATION":43.0043,"RA_OF_ASC_NODE":94.2052,"ARG_OF_PERICENTER":260.5281,"MEAN_ANOMALY":99.5367,"EPHEMERIS_TYPE":0,"CLASSIFICATION_TYPE":"U","NORAD_CAT_ID":62428,"ELEMENT_SET_NO":999,"REV_AT_EPOCH":4464,"BSTAR":0.0014190613,"MEAN_MOTION_DOT":0.00039002,"MEAN_MOTION_DDOT":0},{"OBJECT_NAME":"STARLINK-32418","OBJECT_ID":"2024-249W","EPOCH":"2025-10-09T20:08:28.981248","MEAN_MOTION":15.2756786,"ECCENTRICITY":0.00016238,"INCLINATION":43.0048,"RA_OF_ASC_NODE":85.9385,"ARG_OF_PERICENTER":282.7269,"MEAN_ANOMALY":77.3401,"EPHEMERIS_TYPE":0,"CLASSIFICATION_TYPE":"U","NORAD_CAT_ID":62429,"ELEMENT_SET_NO":999,"REV_AT_EPOCH":4474,"BSTAR":0.0010382707,"MEAN_MOTION_DOT":0.00028408,"MEAN_MOTION_DDOT":0},{"OBJECT_NAME":"STARLINK-32702","OBJECT_ID":"2024-251A","EPOCH":"2025-10-10T05:40:53.146272","MEAN_MOTION":15.30207846,"ECCENTRICITY":0.00015343,"INCLINATION":53.1582,"RA_OF_ASC_NODE":311.2889,"ARG_OF_PERICENTER":106.5605,"MEAN_ANOMALY":253.5565,"EPHEMERIS_TYPE":0,"CLASSIFICATION_TYPE":"U","NORAD_CAT_ID":62432,"ELEMENT_SET_NO":999,"REV_AT_EPOCH":4495,"BSTAR":0.00051529756,"MEAN_MOTION_DOT":0.00014937,"MEAN_MOTION_DDOT":0},{"OBJECT_NAME":"STARLINK-32712","OBJECT_ID":"2024-251B","EPOCH":"2025-10-10T07:34:05.865024","MEAN_MOTION":15.30217659,"ECCENTRICITY":0.00015705,"INCLINATION":53.1568,"RA_OF_ASC_NODE":313.904,"ARG_OF_PERICENTER":116.1325,"MEAN_ANOMALY":243.9837,"EPHEMERIS_TYPE":0,"CLASSIFICATION_TYPE":"U","NORAD_CAT_ID":62433,"ELEMENT_SET_NO":999,"REV_AT_EPOCH":4492,"BSTAR":0.00087684206,"MEAN_MOTION_DOT":0.00025715,"MEAN_MOTION_DDOT":0},{"OBJECT_NAME":"STARLINK-32674","OBJECT_ID":"2024-251C","EPOCH":"2025-10-09T19:41:01.735008","MEAN_MOTION":15.30203385,"ECCENTRICITY":0.00015509,"INCLINATION":53.1601,"RA_OF_ASC_NODE":315.7944,"ARG_OF_PERICENTER":84.24,"MEAN_ANOMALY":275.8778,"EPHEMERIS_TYPE":0,"CLASSIFICATION_TYPE":"U","NORAD_CAT_ID":62434,"ELEMENT_SET_NO":999,"REV_AT_EPOCH":4485,"BSTAR":0.00094456221,"MEAN_MOTION_DOT":0.00027723,"MEAN_MOTION_DDOT":0},{"OBJECT_NAME":"STARLINK-32711","OBJECT_ID":"2024-251D","EPOCH":"2025-10-10T07:29:32.189568","MEAN_MOTION":15.30224574,"ECCENTRICITY":0.00021585,"INCLINATION":53.1572,"RA_OF_ASC_NODE":313.8865,"ARG_OF_PERICENTER":137.1934,"MEAN_ANOMALY":222.9235,"EPHEMERIS_TYPE":0,"CLASSIFICATION_TYPE":"U","NORAD_CAT_ID":62435,"ELEMENT_SET_NO":999,"REV_AT_EPOCH":4492,"BSTAR":0.0010826592,"MEAN_MOTION_DOT":0.00031869,"MEAN_MOTION_DDOT":0},{"OBJECT_NAME":"STARLINK-32697","OBJECT_ID":"2024-251E","EPOCH":"2025-10-10T05:37:15.165984","MEAN_MOTION":15.30202145,"ECCENTRICITY":0.00012812,"INCLINATION":53.1592,"RA_OF_ASC_NODE":314.1119,"ARG_OF_PERICENTER":71.1975,"MEAN_ANOMALY":288.9165,"EPHEMERIS_TYPE":0,"CLASSIFICATION_TYPE":"U","NORAD_CAT_ID":62436,"ELEMENT_SET_NO":999,"REV_AT_EPOCH":4491,"BSTAR":0.00077991348,"MEAN_MOTION_DOT":0.00022812,"MEAN_MOTION_DDOT":0},{"OBJECT_NAME":"STARLINK-32693","OBJECT_ID":"2024-251F","EPOCH":"2025-10-10T07:45:18.474336","MEAN_MOTION":15.30199485,"ECCENTRICITY":9.86e-5,"INCLINATION":53.1595,"RA_OF_ASC_NODE":311.0413,"ARG_OF_PERICENTER":54.8681,"MEAN_ANOMALY":305.2412,"EPHEMERIS_TYPE":0,"CLASSIFICATION_TYPE":"U","NORAD_CAT_ID":62437,"ELEMENT_SET_NO":999,"REV_AT_EPOCH":4496,"BSTAR":0.00092727398,"MEAN_MOTION_DOT":0.00027204,"MEAN_MOTION_DDOT":0},{"OBJECT_NAME":"STARLINK-32721","OBJECT_ID":"2024-251G","EPOCH":"2025-10-10T02:18:30.796128","MEAN_MOTION":15.30216013,"ECCENTRICITY":0.00014618,"INCLINATION":53.1598,"RA_OF_ASC_NODE":314.6679,"ARG_OF_PERICENTER":75.3362,"MEAN_ANOMALY":284.7801,"EPHEMERIS_TYPE":0,"CLASSIFICATION_TYPE":"U","NORAD_CAT_ID":62438,"ELEMENT_SET_NO":999,"REV_AT_EPOCH":4483,"BSTAR":0.0012210417,"MEAN_MOTION_DOT":0.00035998,"MEAN_MOTION_DDOT":0},{"OBJECT_NAME":"STARLINK-32709","OBJECT_ID":"2024-251H","EPOCH":"2025-10-10T06:24:21.536352","MEAN_MOTION":15.30175381,"ECCENTRICITY":0.00015246,"INCLINATION":53.1595,"RA_OF_ASC_NODE":314.314,"ARG_OF_PERICENTER":93.0731,"MEAN_ANOMALY":267.0445,"EPHEMERIS_TYPE":0,"CLASSIFICATION_TYPE":"U","NORAD_CAT_ID":62439,"ELEMENT_SET_NO":999,"REV_AT_EPOCH":4491,"BSTAR":0.00058057519,"MEAN_MOTION_DOT":0.00016862,"MEAN_MOTION_DDOT":0},{"OBJECT_NAME":"STARLINK-32689","OBJECT_ID":"2024-251J","EPOCH":"2025-10-10T01:51:10.534464","MEAN_MOTION":15.301987,"ECCENTRICITY":0.00012388,"INCLINATION":53.1601,"RA_OF_ASC_NODE":314.5485,"ARG_OF_PERICENTER":84.3853,"MEAN_ANOMALY":275.7289,"EPHEMERIS_TYPE":0,"CLASSIFICATION_TYPE":"U","NORAD_CAT_ID":62440,"ELEMENT_SET_NO":999,"REV_AT_EPOCH":4489,"BSTAR":0.00054274638,"MEAN_MOTION_DOT":0.00015749,"MEAN_MOTION_DDOT":0},{"OBJECT_NAME":"STARLINK-32724","OBJECT_ID":"2024-251K","EPOCH":"2025-10-10T02:21:33.265152","MEAN_MOTION":15.30205436,"ECCENTRICITY":0.00013552,"INCLINATION":53.1593,"RA_OF_ASC_NODE":314.6839,"ARG_OF_PERICENTER":89.4696,"MEAN_ANOMALY":270.646,"EPHEMERIS_TYPE":0,"CLASSIFICATION_TYPE":"U","NORAD_CAT_ID":62441,"ELEMENT_SET_NO":999,"REV_AT_EPOCH":4473,"BSTAR":0.001325116,"MEAN_MOTION_DOT":0.000391,"MEAN_MOTION_DDOT":0},{"OBJECT_NAME":"STARLINK-32291","OBJECT_ID":"2024-251L","EPOCH":"2025-10-10T05:41:48.791328","MEAN_MOTION":15.3021662,"ECCENTRICITY":0.00013653,"INCLINATION":53.1583,"RA_OF_ASC_NODE":314.127,"ARG_OF_PERICENTER":84.4765,"MEAN_ANOMALY":275.6392,"EPHEMERIS_TYPE":0,"CLASSIFICATION_TYPE":"U","NORAD_CAT_ID":62442,"ELEMENT_SET_NO":999,"REV_AT_EPOCH":4460,"BSTAR":0.0010527995,"MEAN_MOTION_DOT":0.00030968,"MEAN_MOTION_DDOT":0},{"OBJECT_NAME":"STARLINK-32736","OBJECT_ID":"2024-251M","EPOCH":"2025-10-10T07:26:30.575040","MEAN_MOTION":15.30171065,"ECCENTRICITY":0.00011571,"INCLINATION":53.1574,"RA_OF_ASC_NODE":313.8711,"ARG_OF_PERICENTER":84.4441,"MEAN_ANOMALY":275.6692,"EPHEMERIS_TYPE":0,"CLASSIFICATION_TYPE":"U","NORAD_CAT_ID":62443,"ELEMENT_SET_NO":999,"REV_AT_EPOCH":4476,"BSTAR":0.0005342916,"MEAN_MOTION_DOT":0.00015484,"MEAN_MOTION_DDOT":0},{"OBJECT_NAME":"STARLINK-32737","OBJECT_ID":"2024-251N","EPOCH":"2025-10-10T05:21:15.783840","MEAN_MOTION":15.30278842,"ECCENTRICITY":0.00014119,"INCLINATION":53.1595,"RA_OF_ASC_NODE":311.9097,"ARG_OF_PERICENTER":87.5357,"MEAN_ANOMALY":272.5805,"EPHEMERIS_TYPE":0,"CLASSIFICATION_TYPE":"U","NORAD_CAT_ID":62444,"ELEMENT_SET_NO":999,"REV_AT_EPOCH":4494,"BSTAR":0.0017719182,"MEAN_MOTION_DOT":0.00052621,"MEAN_MOTION_DDOT":0},{"OBJECT_NAME":"STARLINK-32683","OBJECT_ID":"2024-251P","EPOCH":"2025-10-10T07:52:19.965504","MEAN_MOTION":15.3022287,"ECCENTRICITY":0.0001366,"INCLINATION":53.1592,"RA_OF_ASC_NODE":313.9799,"ARG_OF_PERICENTER":103.9901,"MEAN_ANOMALY":256.1252,"EPHEMERIS_TYPE":0,"CLASSIFICATION_TYPE":"U","NORAD_CAT_ID":62445,"ELEMENT_SET_NO":999,"REV_AT_EPOCH":4492,"BSTAR":0.001031202,"MEAN_MOTION_DOT":0.00030328,"MEAN_MOTION_DDOT":0}]
